CORVUS BC1              
1 42847U 17042Y   26068.93334460  .00004853  00000+0  33801-3 0  9990
2 42847  97.3986 234.9925 0013283  71.1953 289.0714 15.05817892472152
STARLINK-4531           
1 53425U 22097AP  26068.40418644 -.00000925  00000+0 -40038-4 0  9998
2 53425  53.2169 115.4028 0001462  94.1137 266.0022 15.08839307198578
